CCSDS_OMM_VERS,COMMENT,CREATION_DATE,ORIGINATOR,OBJECT_NAME,OBJECT_ID,CENTER_NAME,REF_FRAME,TIME_SYSTEM,MEAN_ELEMENT_THEORY,EPOCH,MEAN_MOTION,ECCENTRICITY,INCLINATION,RA_OF_ASC_NODE,ARG_OF_PERICENTER,MEAN_ANOMALY,EPHEMERIS_TYPE,CLASSIFICATION_TYPE,NORAD_CAT_ID,ELEMENT_SET_NO,REV_AT_EPOCH,BSTAR,MEAN_MOTION_DOT,MEAN_MOTION_DDOT,SEMIMAJOR_AXIS,PERIOD,APOAPSIS,PERIAPSIS,OBJECT_TYPE,RCS_SIZE,COUNTRY_CODE,LAUNCH_DATE,SITE,DECAY_DATE,FILE,GP_ID,TLE_LINE0,TLE_LINE1,TLE_LINE2
"2.0","GENERATED VIA SPACE-TRACK.ORG API","2020-09-21T17:17:35","18 SPCS","IRIDIUM 176","2019-002B","EARTH","TEME","UTC","SGP4","2020-09-21T04:34:08.152032","14.72251403","0.00023790","86.6137","149.1655","89.5847","270.5643","0","U","43923","999","9101","0.00001516200000","0.00000120","0.0000000000000","7032.026","97.809","655.564","652.218","PAYLOAD","LARGE","US","2019-01-11","AFWTR","","2830337","161857407","0 IRIDIUM 176","1 43923U 19002B   20265.19037213 +.00000120 +00000-0 +15162-4 0  9996","2 43923 086.6137 149.1655 0002379 089.5847 270.5643 14.72251403091014"
"2.0","GENERATED VIA SPACE-TRACK.ORG API","2020-09-21T17:17:35","18 SPCS","SL-18 DEB","1993-014BJ","EARTH","TEME","UTC","SGP4","2020-09-21T00:24:40.663584","14.81414216","0.00714850","75.7407","26.1174","340.1268","19.7135","0","U","35359","999","69643","0.00029355000000","0.00002379","0.0000000000000","7003.000","97.204","674.926","574.804","DEBRIS","SMALL","CIS","1993-03-25","PKMTR","","2830337","161852633","0 SL-18 DEB","1 35359U 93014BJ  20265.01713731 +.00002379 +00000-0 +29355-3 0  9998","2 35359 075.7407 026.1174 0071485 340.1268 019.7135 14.81414216696433"
"2.0","GENERATED VIA SPACE-TRACK.ORG API","2020-09-21T02:23:48","18 SPCS","IRIDIUM 176","2019-002B","EARTH","TEME","UTC","SGP4","2020-09-20T18:46:53.662656","14.72251298","0.00023790","86.6137","149.3357","89.5916","270.5574","0","U","43923","999","9095","0.00001456600000","0.00000117","0.0000000000000","7032.027","97.809","655.565","652.219","PAYLOAD","LARGE","US","2019-01-11","AFWTR","","2829808","161826515","0 IRIDIUM 176","1 43923U 19002B   20264.78256554 +.00000117 +00000-0 +14566-4 0  9994","2 43923 086.6137 149.3357 0002379 089.5916 270.5574 14.72251298090959"
"2.0","GENERATED VIA SPACE-TRACK.ORG API","2020-09-20T14:26:09","18 SPCS","IRIDIUM 176","2019-002B","EARTH","TEME","UTC","SGP4","2020-09-20T10:37:31.583424","14.72251255","0.00023790","86.6138","149.4776","89.6150","270.5340","0","U","43923","999","9090","0.00001544800000","0.00000122","0.0000000000000","7032.027","97.809","655.565","652.219","PAYLOAD","LARGE","US","2019-01-11","AFWTR","","2829183","161772163","0 IRIDIUM 176","1 43923U 19002B   20264.44272666  .00000122  00000-0  15448-4 0  9995","2 43923  86.6138 149.4776 0002379  89.6150 270.5340 14.72251255 90906"
"2.0","GENERATED VIA SPACE-TRACK.ORG API","2020-09-20T14:56:10","18 SPCS","SL-18 DEB","1993-014BJ","EARTH","TEME","UTC","SGP4","2020-09-20T08:12:10.932480","14.81411147","0.00714390","75.7407","27.3114","341.8851","17.9791","0","U","35359","999","69699","0.00029762000000","0.00002413","0.0000000000000","7003.010","97.204","674.904","574.846","DEBRIS","SMALL","CIS","1993-03-25","PKMTR","","2829380","161777644","0 SL-18 DEB","1 35359U 93014BJ  20264.34179320  .00002413  00000-0  29762-3 0  9994","2 35359  75.7407  27.3114 0071439 341.8851  17.9791 14.81411147696994"
"2.0","GENERATED VIA SPACE-TRACK.ORG API","2020-09-20T02:31:57","18 SPCS","IRIDIUM 176","2019-002B","EARTH","TEME","UTC","SGP4","2020-09-19T19:56:39.843744","14.72251078","0.00023760","86.6139","149.7329","89.5305","270.6185","0","U","43923","999","9081","0.00001367600000","0.00000111","0.0000000000000","7032.027","97.809","655.563","652.222","PAYLOAD","LARGE","US","2019-01-11","AFWTR","","2828634","161759944","0 IRIDIUM 176","1 43923U 19002B   20263.83101671 +.00000111 +00000-0 +13676-4 0  9993","2 43923 086.6139 149.7329 0002376 089.5305 270.6185 14.72251078090813"
"2.0","GENERATED VIA SPACE-TRACK.ORG API","2020-09-20T02:31:57","18 SPCS","SL-18 DEB","1993-014BJ","EARTH","TEME","UTC","SGP4","2020-09-19T15:59:41.087328","14.81407830","0.00714170","75.7408","28.5054","343.6277","16.2601","0","U","35359","999","69623","0.00029996000000","0.00002431","0.0000000000000","7003.020","97.204","674.899","574.872","DEBRIS","SMALL","CIS","1993-03-25","PKMTR","","2828634","161753987","0 SL-18 DEB","1 35359U 93014BJ  20263.66644777 +.00002431 +00000-0 +29996-3 0  9990","2 35359 075.7408 028.5054 0071417 343.6277 016.2601 14.81407830696232"
"2.0","GENERATED VIA SPACE-TRACK.ORG API","2020-09-19T17:32:55","18 SPCS","SL-18 DEB","1993-014BJ","EARTH","TEME","UTC","SGP4","2020-09-19T07:53:26.113344","14.81406279","0.00714100","75.7407","29.1023","344.5085","15.3914","0","U","35359","999","69618","0.00029751000000","0.00002411","0.0000000000000","7003.025","97.204","674.899","574.882","DEBRIS","SMALL","CIS","1993-03-25","PKMTR","","2828245","161723306","0 SL-18 DEB","1 35359U 93014BJ  20263.32877446 +.00002411 +00000-0 +29751-3 0  9991","2 35359 075.7407 029.1023 0071410 344.5085 015.3914 14.81406279696181"
"2.0","GENERATED VIA SPACE-TRACK.ORG API","2020-09-19T17:32:55","18 SPCS","IRIDIUM 176","2019-002B","EARTH","TEME","UTC","SGP4","2020-09-19T06:53:40.510752","14.72250993","0.00023730","86.6139","149.9599","89.4820","270.6669","0","U","43923","999","9073","0.00001382000000","0.00000112","0.0000000000000","7032.028","97.809","655.561","652.224","PAYLOAD","LARGE","US","2019-01-11","AFWTR","","2828245","161731031","0 IRIDIUM 176","1 43923U 19002B   20263.28727443 +.00000112 +00000-0 +13820-4 0  9995","2 43923 086.6139 149.9599 0002373 089.4820 270.6669 14.72250993090735"
"2.0","GENERATED VIA SPACE-TRACK.ORG API","2020-09-19T06:16:09","18 SPCS","IRIDIUM 176","2019-002B","EARTH","TEME","UTC","SGP4","2020-09-19T03:37:55.679232","14.72250920","0.00023700","86.6139","150.0166","89.5942","270.5546","0","U","43923","999","9071","0.00001177100000","0.00000099","0.0000000000000","7032.028","97.809","655.560","652.226","PAYLOAD","LARGE","US","2019-01-11","AFWTR","","2827670","161699011","0 IRIDIUM 176","1 43923U 19002B   20263.15133888  .00000099  00000-0  11771-4 0  9992","2 43923  86.6139 150.0166 0002370  89.5942 270.5546 14.72250920 90712"
"2.0","GENERATED VIA SPACE-TRACK.ORG API","2020-09-19T06:36:11","18 SPCS","SL-18 DEB","1993-014BJ","EARTH","TEME","UTC","SGP4","2020-09-19T01:24:26.107200","14.81405555","0.00714160","75.7407","29.5798","345.2153","14.6943","0","U","35359","999","69680","0.00031909000000","0.00002588","0.0000000000000","7003.027","97.204","674.905","574.880","DEBRIS","SMALL","CIS","1993-03-25","PKMTR","","2827895","161704604","0 SL-18 DEB","1 35359U 93014BJ  20263.05863550  .00002588  00000-0  31909-3 0  9995","2 35359  75.7407  29.5798 0071416 345.2153  14.6943 14.81405555696803"
"2.0","GENERATED VIA SPACE-TRACK.ORG API","2020-09-18T19:31:47","18 SPCS","IRIDIUM 176","2019-002B","EARTH","TEME","UTC","SGP4","2020-09-18T09:41:19.091616","14.72250742","0.00023710","86.6140","150.3287","89.5630","270.5859","0","U","43923","999","9060","0.00000739440000","0.00000071","0.0000000000000","7032.029","97.809","655.561","652.226","PAYLOAD","LARGE","US","2019-01-11","AFWTR","","2827371","161649469","0 IRIDIUM 176","1 43923U 19002B   20262.40369319 +.00000071 +00000-0 +73944-5 0  9990","2 43923 086.6140 150.3287 0002371 089.5630 270.5859 14.72250742090603"
"2.0","GENERATED VIA SPACE-TRACK.ORG API","2020-09-18T06:26:10","18 SPCS","IRIDIUM 176","2019-002B","EARTH","TEME","UTC","SGP4","2020-09-18T03:09:49.420800","14.72250689","0.00023670","86.6140","150.4422","89.6113","270.5375","0","U","43923","999","9056","0.00000480140000","0.00000055","0.0000000000000","7032.029","97.809","655.558","652.229","PAYLOAD","LARGE","US","2019-01-11","AFWTR","","2826667","161617357","0 IRIDIUM 176","1 43923U 19002B   20262.13182200  .00000055  00000-0  48014-5 0  9994","2 43923  86.6140 150.4422 0002367  89.6113 270.5375 14.72250689 90565"
"2.0","GENERATED VIA SPACE-TRACK.ORG API","2020-09-18T01:18:56","18 SPCS","IRIDIUM 176","2019-002B","EARTH","TEME","UTC","SGP4","2020-09-17T17:22:34.912416","14.72250784","0.00023670","86.6141","150.6124","89.4651","270.6837","0","U","43923","999","9050","0.00001706500000","0.00000132","0.0000000000000","7032.028","97.809","655.558","652.229","PAYLOAD","LARGE","US","2019-01-11","AFWTR","","2826577","161615552","0 IRIDIUM 176","1 43923U 19002B   20261.72401519 +.00000132 +00000-0 +17065-4 0  9992","2 43923 086.6141 150.6124 0002367 089.4651 270.6837 14.72250784090506"
"2.0","GENERATED VIA SPACE-TRACK.ORG API","2020-09-17T17:49:25","18 SPCS","IRIDIUM 176","2019-002B","EARTH","TEME","UTC","SGP4","2020-09-17T10:51:05.239008","14.72250732","0.00023640","86.6141","150.7259","89.4912","270.6576","0","U","43923","999","9046","0.00001675000000","0.00000130","0.0000000000000","7032.029","97.809","655.556","652.231","PAYLOAD","LARGE","US","2019-01-11","AFWTR","","2826118","161584877","0 IRIDIUM 176","1 43923U 19002B   20261.45214397 +.00000130 +00000-0 +16750-4 0  9996","2 43923 086.6141 150.7259 0002364 089.4912 270.6576 14.72250732090461"
"2.0","GENERATED VIA SPACE-TRACK.ORG API","2020-09-17T06:56:10","18 SPCS","SL-18 DEB","1993-014BJ","EARTH","TEME","UTC","SGP4","2020-09-17T00:46:55.493472","14.81395377","0.00713490","75.7403","33.1618","350.4449","9.5374","0","U","35359","999","69650","0.00031736000000","0.00002573","0.0000000000000","7003.060","97.205","674.891","574.958","DEBRIS","SMALL","CIS","1993-03-25","PKMTR","","2825734","161557980","0 SL-18 DEB","1 35359U 93014BJ  20261.03258673  .00002573  00000-0  31736-3 0  9997","2 35359  75.7403  33.1618 0071349 350.4449   9.5374 14.81395377696500"
